SL-14 R/B               
1 20262U 89080C   25323.54178997  .00000416  00000+0  11619-3 0  9993
2 20262  82.5938 243.9072 1231113  76.5889 296.9181 12.50387295646386
DELTA 1 R/B             
1 20323U 89089B   25323.60024363  .00000444  00000+0  11845-3 0  9996
2 20323  97.0770 183.5030 0070687 109.9880 250.8949 14.50545395879771
ARIANE 40 R/B           
1 20443U 90005H   25323.59733111  .00000395  00000+0  13934-3 0  9991
2 20443  98.3277  22.4260 0010392 170.0092 190.1305 14.39773555876965
DELTA 2 R/B(1)          
1 20453U 90008B   25323.27954594  .00035711  00000+0  60685-3 0  9995
2 20453  35.6057 171.7665 0116381 324.1684  35.1284 15.43085546909005
COSMOS 2058             
1 20465U 90010A   25323.50311498  .00003627  00000+0  22010-3 0  9998
2 20465  82.4631 155.8911 0010360   3.1385 356.9908 15.10199685925600
SL-14 R/B               
1 20466U 90010B   25323.54201877  .00000529  00000+0  61388-4 0  9992
2 20466  82.5040  10.8330 0018526 305.4562  54.4923 14.83441354912153
SL-14 R/B               
1 20511U 90018B   25323.45395494  .00000554  00000+0  66649-4 0  9993
2 20511  82.5200 326.1321 0017964  94.6067 265.7200 14.82013746906255
HST                     
1 20580U 90037B   25323.60298826  .00007410  00000+0  25871-3 0  9997
2 20580  28.4689  69.9102 0001573 355.1185   4.9395 15.27606596756459
SL-16 R/B               
1 20625U 90046B   25323.55871620  .00000015  00000+0  32395-4 0  9994
2 20625  70.9956 169.2038 0012323 116.0869 244.1524 14.14990106832813
COSMOS 2084             
1 20663U 90055A   25323.51087023  .00002683  00000+0  20089-3 0  9997
2 20663  62.7915 351.1306 0035431 171.8565 188.3118 15.04822173919739
SL-6 R/B(2)             
1 20666U 90055D   25323.54775476  .00002599  00000+0  20696-3 0  9999
2 20666  62.7838 268.2069 0011018 289.4291  70.5617 15.02920946921630
SL-8 R/B                
1 20775U 90078B   25323.48873157  .00021424  00000+0  66168-3 0  9995
2 20775  82.9054 350.0988 0379295  23.8212 338.0049 14.84592207792925
SL-8 R/B                
1 21088U 91006B   25323.60250384  .00000106  00000+0  90934-4 0  9993
2 21088  82.9421 251.9220 0022302 347.2519 187.2651 13.77485904748915
OKEAN-3                 
1 21397U 91039A   25323.59590981  .00003416  00000+0  24555-3 0  9992
2 21397  82.5161  83.4420 0014200 351.5098   8.5885 15.03895705848485
COSMOS 2151             
1 21422U 91042A   25323.60307007  .00001613  00000+0  12877-3 0  9993
2 21422  82.4978 189.7957 0014107  72.8895 287.3873 14.99572585846695
SL-14 R/B               
1 21423U 91042B   25323.48390436  .00000555  00000+0  67442-4 0  9991
2 21423  82.4915 323.5344 0015645 240.7275 119.2376 14.81708611836750
ERS-1                   
1 21574U 91050A   25323.44916064  .00000423  00000+0  15019-3 0  9990
2 21574  98.7916 333.9202 0032243 167.5370 192.6621 14.39339698799878
ARIANE 40 R/B           
1 21610U 91050F   25323.55417548  .00000437  00000+0  14356-3 0  9994
2 21610  98.2200  14.8182 0004052  61.2942 298.8655 14.42785841803112
INTERCOSMOS 25          
1 21819U 91086A   25323.60058005  .00001645  00000+0  32262-3 0  9997
2 21819  82.6085  16.5649 1487830 354.2886   4.2713 12.11626652483352
SL-8 R/B                
1 21876U 92008B   25323.57420991  .00000141  00000+0  12863-3 0  9993
2 21876  82.9274 349.6785 0036107  82.7427  73.0885 13.75951813694279
SL-8 R/B                
1 21938U 92020B   25323.28434182  .00000092  00000+0  80009-4 0  9994
2 21938  82.9316 235.7329 0027700 245.3746 231.6081 13.75522905685955
USA 81                  
1 21949U 92023A   25323.63092860  .00000229  00000+0  77385-4 0  9996
2 21949  85.0103 194.9014 0002432  70.4791 289.6664 14.32315392 79034
COSMOS 2219             
1 22219U 92076A   25323.52213844 -.00000090  00000+0 -22366-4 0  9997
2 22219  71.0610 248.3638 0018125 359.9829   0.1290 14.14067613702801
SL-16 R/B               
1 22220U 92076B   25323.55027712 -.00000091  00000+0 -21644-4 0  9998
2 22220  71.0009  60.3780 0015214 264.1799 106.6530 14.16835470706230
COSMOS 2221             
1 22236U 92080A   25323.26891129  .00002362  00000+0  20999-3 0  9991
2 22236  82.5067  24.7864 0014161 197.8319 162.2407 14.95637067764284
SL-16 R/B               
1 22285U 92093B   25323.49326742  .00000033  00000+0  41120-4 0  9991
2 22285  71.0218 235.5920 0002299 140.8687 219.2603 14.15428006697569
COSMOS 2228             
1 22286U 92094A   25323.55752759  .00002199  00000+0  19052-3 0  9994
2 22286  82.5178 342.7160 0016806 316.6212  43.3686 14.96579529759589
SL-16 R/B               
1 22566U 93016B   25323.45205313  .00000328  00000+0  19277-3 0  9999
2 22566  71.0073  86.7111 0008708 140.8060 219.3695 14.15285705686572
COSMOS 2242             
1 22626U 93024A   25323.56039330  .00002348  00000+0  20687-3 0  9992
2 22626  82.5210  11.9972 0015287 319.7315  40.2773 14.95974205763925
SL-16 R/B               
1 22803U 93059B   25323.51058988 -.00000043  00000+0  26013-5 0  9994
2 22803  70.9902 243.4676 0016585  10.1214 350.0240 14.17208887663926
ARIANE 40 R/B           
1 22830U 93061H   25323.43337308  .00000328  00000+0  13612-3 0  9998
2 22830  98.5106  29.3845 0009720 247.9772 112.0380 14.32780418678311
COSMOS 2278             
1 23087U 94023A   25323.62096348  .00000382  00000+0  22433-3 0  9990
2 23087  71.0554  45.3768 0009667 209.5917 150.4659 14.14344781629248
SL-16 R/B               
1 23088U 94023B   25323.36424175 -.00000125  00000+0 -40059-4 0  9997
2 23088  70.9988 302.5757 0001180 140.1890 219.9320 14.14991370630482
SL-16 R/B               
1 23343U 94074B   25323.55842972  .00000596  00000+0  86780-4 0  9998
2 23343  97.7232 353.7815 0005769 208.9726 303.8936 14.79251859670961
SL-16 R/B               
1 23405U 94077B   25323.17687624 -.00000018  00000+0  15345-4 0  9998
2 23405  70.9829 224.9820 0004347 303.4427  56.6279 14.15547980600598
ARIANE 40+ R/B          
1 23561U 95021B   25323.44422096  .00000415  00000+0  14668-3 0  9997
2 23561  98.4681  31.3115 0007866 110.3986 259.5630 14.39669939603383
SL-16 R/B               
1 23705U 95058B   25323.53171981 -.00000223  00000+0 -89834-4 0  9998
2 23705  71.0228  51.5282 0014990 284.9228  75.0235 14.15475629552266
SL-16 R/B               
1 24298U 96051B   25323.54222226 -.00000028  00000+0  11821-4 0  9993
2 24298  70.7609  48.3841 0018519 290.3368  69.5761 14.12393782506093
ORBVIEW 2 (SEASTAR)     
1 24883U 97037A   25323.42422576  .00000409  00000+0  15863-3 0  9996
2 24883  98.8449 119.9135 0002775  45.1400 315.0010 14.35392357492651
SL-16 R/B               
1 25400U 98043G   25323.57384087  .00000101  00000+0  61207-4 0  9993
2 25400  98.8086 271.2667 0009476 340.0909  19.9900 14.26017428423297
SL-16 R/B               
1 25407U 98045B   25323.52612663 -.00000060  00000+0 -62402-5 0  9996
2 25407  71.0123  53.2426 0008332 209.4945 150.5709 14.16168614411501
ISS (ZARYA)             
1 25544U 98067A   25323.31903918  .00014458  00000+0  26247-3 0  9994
2 25544  51.6333 258.3957 0004144  86.8503 273.2960 15.49817487539229
CZ-4B R/B               
1 25732U 99025C   25323.55812223  .00000111  00000+0  74522-4 0  9993
2 25732  98.6803   5.3528 0036155 302.5523 219.5088 14.18235375372552
OKEAN-O                 
1 25860U 99039A   25323.60186094  .00000871  00000+0  12178-3 0  9997
2 25860  97.9637  19.5006 0001224  66.7670 293.3670 14.80105500418104
SL-16 R/B               
1 25861U 99039B   25323.61924133  .00000733  00000+0  10024-3 0  9998
2 25861  98.0160  17.7654 0013540 253.0950 106.8778 14.81538576420567
DELTA 2 R/B             
1 25876U 99041E   25323.55718241  .00001293  00000+0  24760-3 0  9995
2 25876  51.7633  20.9813 0504881  23.4520 338.8588 14.11319231347474
HELIOS 1B               
1 25977U 99064A   25323.65884933  .00002423  00000+0  27600-3 0  9997
2 25977  98.1756 217.6419 0002510  74.0629 286.0863 14.87149004668904
TERRA                   
1 25994U 99068A   25323.60235953  .00000605  00000+0  13276-3 0  9991
2 25994  97.9782  16.1314 0002822 145.5855  10.6632 14.60914666379006
SL-16 R/B               
1 26070U 00006B   25323.44233423 -.00000150  00000+0 -51939-4 0  9999
2 26070  71.0022 329.6446 0017252 341.2614  18.7872 14.15801375332951
TITAN 4B R/B            
1 26474U 00047B   25323.60502446  .00003557  00000+0  23140-3 0  9998
2 26474  67.9904 349.8185 0040947 171.7693 188.4137 15.08548718376304
ENVISAT                 
1 27386U 02009A   25323.63361698  .00000164  00000+0  67095-4 0  9995
2 27386  98.3562 274.9642 0001247  81.7363  92.1607 14.38987118243348
IDEFIX & ARIANE 42P R/B 
1 27422U 02021B   25323.57816452  .00000372  00000+0  15808-3 0  9991
2 27422  98.5752 258.5739 0012259 146.9473 213.2479 14.30926265228274
AQUA                    
1 27424U 02022A   25323.64285780  .00001321  00000+0  27494-3 0  9995
2 27424  98.4002 284.1521 0000639  68.0184 105.2956 14.61730591252657
CZ-4B R/B               
1 27432U 02024C   25323.60440442  .00000074  00000+0  61198-4 0  9994
2 27432  98.9035  12.4530 0049691 336.7221 177.5452 14.14521137213671
MIDORI II (ADEOS-II)    
1 27597U 02056A   25323.61236361  .00000348  00000+0  15470-3 0  9990
2 27597  98.7599 276.4518 0001028  25.3516 334.7715 14.29183292194572
H-2A R/B                
1 27601U 02056E   25323.52003957  .00000347  00000+0  13596-3 0  9995
2 27601  98.3029 283.2061 0071168 129.2584 344.6208 14.33651634198321
CZ-4B R/B               
1 28059U 03049C   25323.48756680  .00000505  00000+0  12764-3 0  9991
2 28059  98.6769 309.1753 0047673 206.8399 153.0329 14.54879263170575
CZ-2C R/B               
1 28222U 04012C   25323.56468886  .00034127  00000+0  53427-3 0  9999
2 28222  97.7465  14.3077 0018380 359.5027   0.6204 15.53479317187125
SL-16 R/B               
1 28353U 04021B   25323.63967011  .00000308  00000+0  18509-3 0  9992
2 28353  70.9995 103.4389 0006326 224.1920 135.8698 14.14578249107279
